ORBCOMM-X               
1 21576U 91050C   25126.15619167  .00000480  00000+0  15557-3 0  9995
2 21576  98.3454 193.6063 0002721 331.7139  28.3903 14.43229707776052
ORBCOMM FM01            
1 23545U 95017A   25126.50597797  .00005476  00000+0  58075-3 0  9995
2 23545  69.9630 178.0332 0003641 324.5622  35.5290 14.89620187606301
ORBCOMM FM02            
1 23546U 95017B   25126.60555467  .00007123  00000+0  73817-3 0  9997
2 23546  69.9651 197.2995 0004577 339.5849  20.5122 14.90396687605965
ORBCOMM FM08            
1 25112U 97084A   25126.65106129  .00001602  00000+0  48877-3 0  9990
2 25112  45.0126 207.2371 0004389  24.9926 335.1137 14.45689514435360
ORBCOMM FM10            
1 25113U 97084B   25126.62608648  .00001616  00000+0  49488-3 0  9995
2 25113  45.0137 209.6651 0004005 334.8630  25.2026 14.45480158610508
ORBCOMM FM11            
1 25114U 97084C   25126.69261842  .00001566  00000+0  48315-3 0  9996
2 25114  45.0124 209.9040 0004660 341.7945  18.2738 14.45232175435470
ORBCOMM FM12            
1 25115U 97084D   25126.72483637  .00001582  00000+0  48753-3 0  9993
2 25115  45.0132 209.5043 0003856 333.0528  27.0123 14.45253071435278
ORBCOMM FM09            
1 25116U 97084E   25126.54622063  .00001587  00000+0  49006-3 0  9999
2 25116  45.0136 211.2525 0005496 328.3614  31.6906 14.45130997435454
